{
    "links": {
        "self": "http://www.neowsapp.com/rest/v1/neo/3703789?api_key=iIulBulltgU6a56xZRHN4H3l9WmuAYTsLGpBGhQ2"
    },
    "id": "3703789",
    "neo_reference_id": "3703789",
    "name": "(2015 BD)",
    "designation": "2015 BD",
    "nasa_jpl_url": "http://ssd.jpl.nasa.gov/sbdb.cgi?sstr=3703789",
    "absolute_magnitude_h": 24.0,
    "estimated_diameter": {
        "kilometers": {
            "estimated_diameter_min": 0.0421264611,
            "estimated_diameter_max": 0.0941976306
        },
        "meters": {
            "estimated_diameter_min": 42.1264610556,
            "estimated_diameter_max": 94.1976305719
        },
        "miles": {
            "estimated_diameter_min": 0.0261761612,
            "estimated_diameter_max": 0.0585316759
        },
        "feet": {
            "estimated_diameter_min": 138.2101784897,
            "estimated_diameter_max": 309.0473542854
        }
    },
    "is_potentially_hazardous_asteroid": false,
    "close_approach_data": [
        {
            "close_approach_date": "2015-01-21",
            "close_approach_date_full": "2015-Jan-21 05:12",
            "epoch_date_close_approach": 1421817120000,
            "relative_velocity": {
                "kilometers_per_second": "11.1165320555",
                "kilometers_per_hour": "40019.5153997939",
                "miles_per_hour": "24866.5705549441"
            },
            "miss_distance": {
                "astronomical": "0.0497091983",
                "lunar": "19.3368781387",
                "kilometers": "7436390.185087621",
                "miles": "4620758.5935903298"
            },
            "orbiting_body": "Earth"
        },
        {
            "close_approach_date": "2144-01-26",
            "close_approach_date_full": "2144-Jan-26 03:53",
            "epoch_date_close_approach": 5493066780000,
            "relative_velocity": {
                "kilometers_per_second": "10.613145185",
                "kilometers_per_hour": "38207.3226659201",
                "miles_per_hour": "23740.5444642768"
            },
            "miss_distance": {
                "astronomical": "0.0489603651",
                "lunar": "19.0455820239",
                "kilometers": "7324366.333382337",
                "miles": "4551150.1999247706"
            },
            "orbiting_body": "Earth"
        }
    ],
    "orbital_data": {
        "orbit_id": "7",
        "orbit_determination_date": "2019-07-17 06:10:36",
        "first_observation_date": "2015-01-13",
        "last_observation_date": "2015-01-19",
        "data_arc_in_days": 6,
        "observations_used": 48,
        "orbit_uncertainty": "8",
        "minimum_orbit_intersection": ".0450344",
        "jupiter_tisserand_invariant": "3.653",
        "epoch_osculation": "2457038.5",
        "eccentricity": ".5372926853069888",
        "semi_major_axis": "1.990042443116123",
        "inclination": "5.568795396758552",
        "ascending_node_longitude": "97.21100811207214",
        "orbital_period": "1025.396747183136",
        "perihelion_distance": ".9208071949793809",
        "perihelion_argument": "65.34436448917056",
        "aphelion_distance": "3.059277691252866",
        "perihelion_time": "2457074.989933883920",
        "mean_anomaly": "347.1889819874131",
        "mean_motion": ".3510836181107017",
        "equinox": "J2000",
        "orbit_class": {
            "orbit_class_type": "APO",
            "orbit_class_description": "Near-Earth asteroid orbits which cross the Earth’s orbit similar to that of 1862 Apollo",
            "orbit_class_range": "a (semi-major axis) > 1.0 AU; q (perihelion) < 1.017 AU"
        }
    },
    "is_sentry_object": false
}